KUIPER-00089            
1 64834U 25151U   25255.57268491  .00032453  00000+0  89635-3 0  9990
2 64834  51.8824   6.4098 0007667   3.5035 356.6004 15.36741659  8957
KUIPER-00090            
1 64835U 25151V   25255.58220674  .00036460  00000+0  10161-2 0  9992
2 64835  51.8799   6.4660 0007145   9.6822 350.4301 15.36409460  8959
KUIPER-00091            
1 64836U 25151W   25254.58500590  .00039284  00000+0  10787-2 0  9991
2 64836  51.8813  11.0338 0007173 348.1400  11.9416 15.36834455  8801
KUIPER-00092            
1 64837U 25151X   25255.58335648 -.01780750  00000+0 -64019-1 0  9993
2 64837  51.8820   6.3516 0007828 340.2046  84.2990 15.31450019  5476
KUIPER-00093            
1 64838U 25151Y   25255.58335648 -.01402817  00000+0 -62152-1 0  9995
2 64838  51.8846   6.9098 0010813   5.1003 119.2774 15.24363100  2498
KUIPER-00094            
1 64839U 25151Z   25254.58651828  .00044430  00000+0  12110-2 0  9996
2 64839  51.8816  11.0418 0007156 355.5533   4.5389 15.37008391  8806
KUIPER-00081            
1 65132U 25171A   25255.27237235  .00033319  00000+0  93057-3 0  9998
2 65132  51.8782 251.4935 0004339 231.2744 128.7855 15.36400063  6135
KUIPER-00088            
1 65133U 25171B   25255.27276324  .00023027  00000+0  64582-3 0  9997
2 65133  51.8710 251.4951 0003417 213.3559 146.7213 15.36473600  6131
